[{"OBJECT_NAME":"STARLINK-31549","OBJECT_ID":"2024-060N","EPOCH":"2026-03-09T13:01:16.445280","MEAN_MOTION":15.2757319,"ECCENTRICITY":0.00013349,"INCLINATION":43.001,"RA_OF_ASC_NODE":260.4047,"ARG_OF_PERICENTER":282.4267,"MEAN_ANOMALY":77.6435,"EPHEMERIS_TYPE":0,"CLASSIFICATION_TYPE":"U","NORAD_CAT_ID":59360,"ELEMENT_SET_NO":999,"REV_AT_EPOCH":11004,"BSTAR":1.6321756e-5,"MEAN_MOTION_DOT":1.87e-6,"MEAN_MOTION_DDOT":0},{"OBJECT_NAME":"GEOSCAN 2 (RS92S2)","OBJECT_ID":"2025-155Q","EPOCH":"2026-03-09T23:01:48.939744","MEAN_MOTION":15.28709337,"ECCENTRICITY":0.00085277,"INCLINATION":97.4463,"RA_OF_ASC_NODE":37.5259,"ARG_OF_PERICENTER":140.9505,"MEAN_ANOMALY":219.2352,"EPHEMERIS_TYPE":0,"CLASSIFICATION_TYPE":"U","NORAD_CAT_ID":64890,"ELEMENT_SET_NO":999,"REV_AT_EPOCH":6561,"BSTAR":0.00051551761,"MEAN_MOTION_DOT":0.00014341,"MEAN_MOTION_DDOT":0}]
